0 STTW-1
1 16526U 86010A   13281.84025659  .00000097  00000-0  00000+0 0  3055
2 16526 014.7337 006.5050 0006458 121.6530 238.4184 01.00267701108984
0 STTW-1
1 16526U 86010A   13287.82388895  .00000086  00000-0  00000+0 0  3062
2 16526 014.7366 006.4423 0006339 124.1103 235.9419 01.00270239109042
0 STTW-1
1 16526U 86010A   13293.80738899  .00000091  00000-0  00000+0 0  3077
2 16526 014.7398 006.3795 0006600 125.8107 234.2374 01.00272859109100
0 STTW-1
1 16526U 86010A   13294.80462663  .00000093  00000-0  00000+0 0  3084
2 16526 014.7401 006.3692 0006352 128.4485 231.5948 01.00273274109113
